OBJECT_NAME,OBJECT_ID,EPOCH,MEAN_MOTION,ECCENTRICITY,INCLINATION,RA_OF_ASC_NODE,ARG_OF_PERICENTER,MEAN_ANOMALY,EPHEMERIS_TYPE,CLASSIFICATION_TYPE,NORAD_CAT_ID,ELEMENT_SET_NO,REV_AT_EPOCH,BSTAR,MEAN_MOTION_DOT,MEAN_MOTION_DDOT
LARES-2,2022-080A,2026-05-07T03:52:33.796992,6.38965197,.0005357,70.1704,319.3995,343.8104,16.2342,0,U,53105,999,8904,0,-.8E-7,0
GREENCUBE (IO-117),2022-080E,2026-05-11T10:53:54.781728,6.42583318,.00088758,70.1441,311.0256,298.1354,61.8409,0,U,53109,999,8970,0,-.3E-7,0
STARLINK-4410,2022-084R,2026-05-12T00:00:02.000160,15.15798195,.00019474,97.6009,192.6049,107.3766,82.4510,0,U,53204,999,569,.34015788E-2,.65428E-3,0
COSMOS 2558,2022-089A,2026-05-11T20:27:14.570208,15.68604643,.0002614,97.2245,234.6363,176.6646,183.4633,0,U,53323,999,21212,.49859E-3,.56668E-3,0
TECMS,2022-090A,2026-05-11T22:02:48.792192,15.21429341,.00018372,97.3152,201.0501,348.7604,11.3591,0,U,53346,999,20929,.10028393E-3,.2184E-4,0
DONGPO 02,2022-098J,2026-05-11T22:30:51.996384,15.68315237,.00025664,97.5464,260.1974,124.2467,235.9037,0,U,53452,999,20910,.48843693E-3,.54847E-3,0
DONGPO 01,2022-098K,2026-05-11T22:48:16.377984,15.66746950,.00008315,97.5531,260.8107,149.1642,210.9667,0,U,53453,999,20907,.47898729E-3,.50444E-3,0
STARLINK-4400,2022-099D,2026-05-11T21:24:41.428224,15.05644381,.00003392,97.5045,252.2786,41.1326,318.9927,0,U,53468,999,20548,.68235707E-4,.925E-5,0
STARLINK-4621,2022-105AE,2026-05-11T05:31:40.808352,15.05655281,.00019303,97.5087,11.6414,69.6837,290.4597,0,U,53676,999,20264,-.57682137E-4,-.892E-5,0
SHERPA-LTC2,2022-107BG,2026-05-11T22:25:21.434304,14.69173968,.03977862,53.2349,13.7515,124.7411,239.1699,0,U,53754,999,19721,.22116884E-3,.4227E-4,0
CENTISPACE-1 S3,2022-108A,2026-05-11T21:17:00.127392,14.61218569,.00082644,53.5322,205.3596,243.7730,116.2396,0,U,53757,999,19622,.6824315E-4,.15E-5,0
CENTISPACE-1 S4,2022-108B,2026-05-11T21:18:34.498656,14.61891269,.00080394,53.5296,203.0438,229.3134,130.7143,0,U,53758,999,19625,.874314E-4,.251E-5,0
BLUEWALKER-3,2022-111AL,2026-05-11T22:04:36.479424,15.37831088,.00073683,53.2286,204.1731,67.5436,292.6349,0,U,53807,999,20462,.8747157E-4,.2908E-4,0
YUNHAI-1 03,2022-115A,2026-05-11T22:35:46.177152,14.32692532,.00053984,98.5537,130.5502,141.7244,218.4324,0,U,53877,999,19032,.1088427E-3,.252E-5,0
CENTISPACE-1 S5,2022-126A,2026-05-11T22:33:31.202208,14.62946741,.00122435,55.0002,358.0025,0.1315,359.9680,0,U,54020,999,19173,.12532143E-3,.457E-5,0
CENTISPACE-1 S6,2022-126B,2026-05-11T21:58:06.589056,14.62237064,.00140882,55.0005,359.7996,358.9613,1.1349,0,U,54021,999,19169,.10963039E-3,.369E-5,0
OTB-3-GAZELLE,2022-127A,2026-05-11T22:12:10.691136,14.42660995,.00120372,98.3940,124.1839,301.3396,58.6615,0,U,54023,999,18913,.39745158E-4,.89E-6,0
ASO-S,2022-129A,2026-05-12T00:11:20.083776,14.52043554,.00138174,98.2756,137.6062,198.7638,161.3050,0,U,54029,999,19017,.38322498E-4,.11E-5,0
HJ-2E,2022-132A,2026-05-11T23:51:35.227872,15.21766033,.00222216,97.3809,137.0391,132.9546,227.3559,0,U,54035,999,19891,.19869518E-3,.4465E-4,0
COSMOS 2561,2022-137A,2026-05-11T20:14:52.949760,15.50772240,.0010946,96.9224,192.2202,151.0930,209.0931,0,U,54109,999,20071,.1546E-3,.8834E-4,0
GONETS-M 23,2022-139A,2026-05-11T23:00:28.365696,12.42889174,.00208135,82.5099,10.8101,302.8792,57.0285,0,U,54150,999,16114,.17765486E-3,.34E-6,0
GONETS-M 24,2022-139B,2026-05-11T22:21:46.408032,12.42889713,.00162009,82.5002,9.9116,314.4424,45.5330,0,U,54151,999,16114,.7240263E-4,.2E-6,0
GONETS-M 25,2022-139C,2026-05-11T22:02:06.967680,12.42888962,.00200889,82.5076,10.5868,312.2350,47.7024,0,U,54152,999,16114,.10310253E-4,.11E-6,0
SKIF-D,2022-139D,2026-05-11T11:35:16.077408,5.00438845,.0007415,89.9557,96.6788,215.3181,144.6708,0,U,54153,999,6227,0,.36E-6,0
MATS,2022-147A,2026-05-11T21:15:24.634656,15.05125547,.00116409,97.6826,133.6465,329.2313,30.8230,0,U,54227,999,19230,.19791199E-3,.2758E-4,0
JILIN-1 GAOFEN 03D54,2022-155D,2026-05-11T22:37:02.362080,15.82660166,.00020713,97.6080,280.7467,165.1607,194.9723,0,U,54254,999,19454,.55601852E-3,.117386E-2,0
EOS-6 (OCEANSAT-3),2022-158A,2026-05-11T22:17:19.310208,14.47018941,.00022539,98.3524,230.6079,89.2804,270.8646,0,U,54361,999,18259,.49877154E-4,.138E-5,0
DONGPO 09,2022-167D,2026-05-11T22:13:16.506336,15.35527097,.00014206,97.6876,301.3451,227.1084,133.0040,0,U,54685,999,18988,.21422363E-3,.731E-4,0
DONGPO 08,2022-167E,2026-05-11T23:23:12.723648,15.32930913,.00069663,97.6836,298.7429,298.8751,61.1791,0,U,54686,999,18977,.20057065E-3,.6299E-4,0
2022-167F,2022-167F,2026-05-11T22:16:41.583648,15.80834067,.0003145,97.6178,315.7252,182.1403,177.9851,0,U,54687,999,19108,.52951807E-3,.102599E-2,0
