LARES-2                 
1 53105U 22080A   26127.16150228 -.00000008  00000+0  00000+0 0  9996
2 53105  70.1704 319.3995 0005357 343.8104  16.2342  6.38965197 89040
GREENCUBE (IO-117)      
1 53109U 22080E   26131.45410627 -.00000003  00000+0  00000+0 0  9994
2 53109  70.1441 311.0256 0008875 298.1354  61.8409  6.42583318 89707
STARLINK-4410           
1 53204U 22084R   26132.00002315  .00065428  00000+0  34016-2 0  9995
2 53204  97.6009 192.6049 0001947 107.3766  82.4510 15.15798195  5690
COSMOS 2558             
1 53323U 22089A   26131.85225197  .00056668  00000+0  49859-3 0  9997
2 53323  97.2245 234.6363 0002614 176.6646 183.4633 15.68604643212122
TECMS                   
1 53346U 22090A   26131.91862028  .00002184  00000+0  10028-3 0  9991
2 53346  97.3152 201.0501 0001837 348.7604  11.3591 15.21429341209294
DONGPO 02               
1 53452U 22098J   26131.93810181  .00054847  00000+0  48844-3 0  9992
2 53452  97.5464 260.1974 0002566 124.2467 235.9037 15.68315237209102
DONGPO 01               
1 53453U 22098K   26131.95018956  .00050444  00000+0  47899-3 0  9993
2 53453  97.5531 260.8107 0000831 149.1642 210.9667 15.66746950209073
STARLINK-4400           
1 53468U 22099D   26131.89214616  .00000925  00000+0  68236-4 0  9992
2 53468  97.5045 252.2786 0000339  41.1326 318.9927 15.05644381205487
STARLINK-4621           
1 53676U 22105AE  26131.23033343 -.00000892  00000+0 -57682-4 0  9993
2 53676  97.5087  11.6414 0001930  69.6837 290.4597 15.05655281202642
SHERPA-LTC2             
1 53754U 22107BG  26131.93427586  .00004227  00000+0  22117-3 0  9993
2 53754  53.2349  13.7515 0397786 124.7411 239.1699 14.69173968197217
CENTISPACE-1 S3         
1 53757U 22108A   26131.88680703  .00000150  00000+0  68243-4 0  9995
2 53757  53.5322 205.3596 0008264 243.7730 116.2396 14.61218569196226
CENTISPACE-1 S4         
1 53758U 22108B   26131.88789929  .00000251  00000+0  87431-4 0  9998
2 53758  53.5296 203.0438 0008039 229.3134 130.7143 14.61891269196253
BLUEWALKER-3            
1 53807U 22111AL  26131.91986666  .00002908  00000+0  87472-4 0  9994
2 53807  53.2286 204.1731 0007368  67.5436 292.6349 15.37831088204627
YUNHAI-1 03             
1 53877U 22115A   26131.94150668  .00000252  00000+0  10884-3 0  9995
2 53877  98.5537 130.5502 0005398 141.7244 218.4324 14.32692532190329
CENTISPACE-1 S5         
1 54020U 22126A   26131.93994447  .00000457  00000+0  12532-3 0  9997
2 54020  55.0002 358.0025 0012243   0.1315 359.9680 14.62946741191735
CENTISPACE-1 S6         
1 54021U 22126B   26131.91535404  .00000369  00000+0  10963-3 0  9998
2 54021  55.0005 359.7996 0014088 358.9613   1.1349 14.62237064191692
OTB-3-GAZELLE           
1 54023U 22127A   26131.92512374  .00000089  00000+0  39745-4 0  9992
2 54023  98.3940 124.1839 0012037 301.3396  58.6615 14.42660995189134
ASO-S                   
1 54029U 22129A   26132.00787134  .00000110  00000+0  38322-4 0  9993
2 54029  98.2756 137.6062 0013817 198.7638 161.3050 14.52043554190173
HJ-2E                   
1 54035U 22132A   26131.99415773  .00004465  00000+0  19870-3 0  9991
2 54035  97.3809 137.0391 0022221 132.9546 227.3559 15.21766033198913
COSMOS 2561             
1 54109U 22137A   26131.84366840  .00008834  00000+0  15460-3 0  9997
2 54109  96.9224 192.2202 0010946 151.0930 209.0931 15.50772240200717
GONETS-M 23             
1 54150U 22139A   26131.95866164  .00000034  00000+0  17765-3 0  9995
2 54150  82.5099  10.8101 0020813 302.8792  57.0285 12.42889174161142
GONETS-M 24             
1 54151U 22139B   26131.93178713  .00000020  00000+0  72403-4 0  9996
2 54151  82.5002   9.9116 0016200 314.4424  45.5330 12.42889713161140
GONETS-M 25             
1 54152U 22139C   26131.91813620  .00000011  00000+0  10310-4 0  9997
2 54152  82.5076  10.5868 0020088 312.2350  47.7024 12.42888962161146
SKIF-D                  
1 54153U 22139D   26131.48282497  .00000036  00000+0  00000+0 0  9999
2 54153  89.9557  96.6788 0007415 215.3181 144.6708  5.00438845 62279
MATS                    
1 54227U 22147A   26131.88570179  .00002758  00000+0  19791-3 0  9995
2 54227  97.6826 133.6465 0011640 329.2313  30.8230 15.05125547192309
JILIN-1 GAOFEN 03D54    
1 54254U 22155D   26131.94238845  .00117386  00000+0  55602-3 0  9997
2 54254  97.6080 280.7467 0002071 165.1607 194.9723 15.82660166194541
EOS-6 (OCEANSAT-3)      
1 54361U 22158A   26131.92869572  .00000138  00000+0  49877-4 0  9998
2 54361  98.3524 230.6079 0002253  89.2804 270.8646 14.47018941182599
DONGPO 09               
1 54685U 22167D   26131.92588549  .00007310  00000+0  21422-3 0  9993
2 54685  97.6876 301.3451 0001420 227.1084 133.0040 15.35527097189880
DONGPO 08               
1 54686U 22167E   26131.97445282  .00006299  00000+0  20057-3 0  9993
2 54686  97.6836 298.7429 0006966 298.8751  61.1791 15.32930913189771
2022-167F               
1 54687U 22167F   26131.92825907  .00102599  00000+0  52952-3 0  9994
2 54687  97.6178 315.7252 0003145 182.1403 177.9851 15.80834067191086
